STARLINK-31853          
1 59933U 24106M   25039.28194770 -.00000561  00000+0 -61757-5 0  9993
2 59933  43.0030  44.2184 0001087 255.4032 104.6704 15.40696272 40155
STARLINK-31971          
1 59934U 24106N   25039.33450876  .00000219  00000+0  12500-4 0  9991
2 59934  43.0044  39.2746 0001043 257.9243 102.1497 15.40700552 40094
STARLINK-31962          
1 59936U 24106Q   25039.06470532  .00000026  00000+0  78813-5 0  9990
2 59936  43.0052  45.1673 0000936 277.4227  82.6523 15.40694662 40129
STARLINK-31879          
1 59937U 24106R   25039.44022202 -.00004073  00000+0 -90235-4 0  9999
2 59937  43.0041  42.8188 0001002 271.0845  88.9897 15.40719558 40231
STARLINK-31876          
1 59938U 24106S   25039.35125409  .00001000  00000+0  31205-4 0  9990
2 59938  43.0040  43.8809 0001233 265.4326  94.6389 15.40691449 40170
STARLINK-31955          
1 59939U 24106T   25039.35349487  .00035309  00000+0  84883-3 0  9993
2 59939  42.9996  43.8950 0001584 250.4242 109.6444 15.40691827 40210
STARLINK-31946          
1 59940U 24106U   25039.70403185 -.00000401  00000+0 -23529-5 0  9999
2 59940  43.0048  41.3599 0000608 255.5454 104.5335 15.40692316 40263
STARLINK-31948          
1 59941U 24106V   25039.68567079 -.00004973  00000+0 -11176-3 0  9991
2 59941  43.0036  38.5238 0000882 289.7365  70.3396 15.40728874 40258
STARLINK-31900          
1 59942U 24106W   25039.42728040  .00001207  00000+0  36158-4 0  9994
2 59942  43.0015  43.5898 0001471 273.4137  86.6551 15.40700912 40173
STARLINK-31973          
1 59943U 24106X   25039.07178709  .00001312  00000+0  38659-4 0  9992
2 59943  43.0036  45.2248 0001153 253.6788 106.3942 15.40701623 40123
STARLINK-31966          
1 59944U 24106Y   25039.27298390  .00000220  00000+0  12530-4 0  9991
2 59944  43.0049  44.1468 0001072 220.5827 139.4949 15.40695458 40208
STARLINK-11145 [DTC]    
1 59945U 24107A   25039.27040225  .00000855  00000+0  11909-4 0  9998
2 59945  53.1563  35.9265 0000965 104.8719 255.2406 15.69711932 40199
STARLINK-11121 [DTC]    
1 59946U 24107B   25039.25275056  .00000993  00000+0  10065-4 0  9994
2 59946  53.1572  30.6714 0001242  97.6551 262.4611 15.76731219 40335
STARLINK-11113 [DTC]    
1 59947U 24107C   25039.27519941 -.00000492  00000+0  79880-6 0  9998
2 59947  53.1588  35.2129 0001236  99.9165 260.1992 15.69719393 40207
STARLINK-11123 [DTC]    
1 59948U 24107D   25039.26059143 -.00001576  00000+0 -81478-5 0  9991
2 59948  53.1586  35.8595 0001359  89.2533 270.8640 15.69715600 40256
STARLINK-11138 [DTC]    
1 59949U 24107E   25039.24096960  .00004791  00000+0  44380-4 0  9998
2 59949  53.1579  35.7239 0001907 117.5169 242.6043 15.69713443 40259
STARLINK-11130 [DTC]    
1 59950U 24107F   25039.25568720 -.00002399  00000+0 -14929-4 0  9999
2 59950  53.1589  35.8262 0001337  92.1127 268.0044 15.69728200 40191
STARLINK-11126 [DTC]    
1 59951U 24107G   25039.66032948  .00000701  00000+0  82819-5 0  9990
2 59951  53.1595  19.9366 0001575 104.1317 255.9879 15.76730192 40491
STARLINK-11124 [DTC]    
1 59952U 24107H   25039.69155424  .00000536  00000+0  92866-5 0  9998
2 59952  53.1587  33.5653 0001269  95.4341 264.6822 15.69715613 40334
STARLINK-11143 [DTC]    
1 59953U 24107J   25039.68174339 -.00000629  00000+0 -32665-6 0  9991
2 59953  53.1584  33.4998 0001288  94.9141 265.2023 15.69722088 40273
STARLINK-11133 [DTC]    
1 59954U 24107K   25039.35851580 -.00003052  00000+0 -20347-4 0  9991
2 59954  53.1590  35.0363 0001846  83.4545 276.6683 15.69689554 40218
STARLINK-11144 [DTC]    
1 59955U 24107L   25039.28992543  .00000080  00000+0  55169-5 0  9996
2 59955  53.1581  35.3190 0001057  87.2356 272.8783 15.69711401 40267
STARLINK-11134 [DTC]    
1 59956U 24107M   25039.28501965  .00000805  00000+0  11504-4 0  9990
2 59956  53.1586  35.2863 0001188  99.3992 260.7160 15.69703111 40134
STARLINK-11142 [DTC]    
1 59957U 24107N   25039.28011376 -.00001377  00000+0 -65059-5 0  9995
2 59957  53.1584  35.2553 0001328  98.3299 261.7870 15.69709174 40217
STARLINK-31995          
1 59958U 24107P   25039.42656226  .00001585  00000+0  65676-4 0  9994
2 59958  53.1601  96.7994 0001346  78.9575 281.1577 15.30184018 38231
STARLINK-31989          
1 59959U 24107Q   25039.42023345  .00003468  00000+0  12928-3 0  9998
2 59959  53.1597  96.7632 0001449  92.9226 267.1940 15.30168802 39432
STARLINK-31856          
1 59960U 24107R   25039.42339558  .00001793  00000+0  72693-4 0  9991
2 59960  53.1594  96.7798 0001376  81.6203 278.4954 15.30181249 39433
STARLINK-31993          
1 59961U 24107S   25039.43289454  .00001465  00000+0  61600-4 0  9994
2 59961  53.1603  96.8356 0001238  74.9082 285.2056 15.30185827 39371
STARLINK-31980          
1 59962U 24107T   25039.44028185  .00001034  00000+0  47039-4 0  9990
2 59962  53.1607  96.8806 0001274  84.5385 275.5761 15.30191120 39445
STARLINK-31991          
1 59963U 24107U   25039.42972919  .00002406  00000+0  93396-4 0  9993
2 59963  53.1600  96.8159 0001341  88.5991 271.5163 15.30180455 39432
