OBJECT_NAME,OBJECT_ID,EPOCH,MEAN_MOTION,ECCENTRICITY,INCLINATION,RA_OF_ASC_NODE,ARG_OF_PERICENTER,MEAN_ANOMALY,EPHEMERIS_TYPE,CLASSIFICATION_TYPE,NORAD_CAT_ID,ELEMENT_SET_NO,REV_AT_EPOCH,BSTAR,MEAN_MOTION_DOT,MEAN_MOTION_DDOT
STARLINK-31853,2024-106M,2025-02-08T06:46:00.281280,15.40696272,.0001087,43.0030,44.2184,255.4032,104.6704,0,U,59933,999,4015,-.61757E-5,-.561E-5,0
STARLINK-31971,2024-106N,2025-02-08T08:01:41.556864,15.40700552,.0001043,43.0044,39.2746,257.9243,102.1497,0,U,59934,999,4009,.125E-4,.219E-5,0
STARLINK-31962,2024-106Q,2025-02-08T01:33:10.539648,15.40694662,.0000936,43.0052,45.1673,277.4227,82.6523,0,U,59936,999,4012,.78813E-5,.26E-6,0
STARLINK-31879,2024-106R,2025-02-08T10:33:55.182528,15.40719558,.0001002,43.0041,42.8188,271.0845,88.9897,0,U,59937,999,4023,-.90235E-4,-.4073E-4,0
STARLINK-31876,2024-106S,2025-02-08T08:25:48.353376,15.40691449,.0001233,43.0040,43.8809,265.4326,94.6389,0,U,59938,999,4017,.31205E-4,.1E-4,0
STARLINK-31955,2024-106T,2025-02-08T08:29:01.956768,15.40691827,.0001584,42.9996,43.8950,250.4242,109.6444,0,U,59939,999,4021,.84883E-3,.35309E-3,0
STARLINK-31946,2024-106U,2025-02-08T16:53:48.351840,15.40692316,.0000608,43.0048,41.3599,255.5454,104.5335,0,U,59940,999,4026,-.23529E-5,-.401E-5,0
STARLINK-31948,2024-106V,2025-02-08T16:27:21.956256,15.40728874,.0000882,43.0036,38.5238,289.7365,70.3396,0,U,59941,999,4025,-.11176E-3,-.4973E-4,0
STARLINK-31900,2024-106W,2025-02-08T10:15:17.026560,15.40700912,.0001471,43.0015,43.5898,273.4137,86.6551,0,U,59942,999,4017,.36158E-4,.1207E-4,0
STARLINK-31973,2024-106X,2025-02-08T01:43:22.404576,15.40701623,.0001153,43.0036,45.2248,253.6788,106.3942,0,U,59943,999,4012,.38659E-4,.1312E-4,0
STARLINK-31966,2024-106Y,2025-02-08T06:33:05.808960,15.40695458,.0001072,43.0049,44.1468,220.5827,139.4949,0,U,59944,999,4020,.1253E-4,.22E-5,0
STARLINK-11145 [DTC],2024-107A,2025-02-08T06:29:22.754400,15.69711932,.0000965,53.1563,35.9265,104.8719,255.2406,0,U,59945,999,4019,.11909E-4,.855E-5,0
STARLINK-11121 [DTC],2024-107B,2025-02-08T06:03:57.648384,15.76731219,.0001242,53.1572,30.6714,97.6551,262.4611,0,U,59946,999,4033,.10065E-4,.993E-5,0
STARLINK-11113 [DTC],2024-107C,2025-02-08T06:36:17.229024,15.69719393,.0001236,53.1588,35.2129,99.9165,260.1992,0,U,59947,999,4020,.7988E-6,-.492E-5,0
STARLINK-11123 [DTC],2024-107D,2025-02-08T06:15:15.099552,15.69715600,.0001359,53.1586,35.8595,89.2533,270.8640,0,U,59948,999,4025,-.81478E-5,-.1576E-4,0
STARLINK-11138 [DTC],2024-107E,2025-02-08T05:46:59.773440,15.69713443,.0001907,53.1579,35.7239,117.5169,242.6043,0,U,59949,999,4025,.4438E-4,.4791E-4,0
STARLINK-11130 [DTC],2024-107F,2025-02-08T06:08:11.374080,15.69728200,.0001337,53.1589,35.8262,92.1127,268.0044,0,U,59950,999,4019,-.14929E-4,-.2399E-4,0
STARLINK-11126 [DTC],2024-107G,2025-02-08T15:50:52.467072,15.76730192,.0001575,53.1595,19.9366,104.1317,255.9879,0,U,59951,999,4049,.82819E-5,.701E-5,0
STARLINK-11124 [DTC],2024-107H,2025-02-08T16:35:50.286336,15.69715613,.0001269,53.1587,33.5653,95.4341,264.6822,0,U,59952,999,4033,.92866E-5,.536E-5,0
STARLINK-11143 [DTC],2024-107J,2025-02-08T16:21:42.628896,15.69722088,.0001288,53.1584,33.4998,94.9141,265.2023,0,U,59953,999,4027,-.32665E-6,-.629E-5,0
STARLINK-11133 [DTC],2024-107K,2025-02-08T08:36:15.765120,15.69689554,.0001846,53.1590,35.0363,83.4545,276.6683,0,U,59954,999,4021,-.20347E-4,-.3052E-4,0
STARLINK-11144 [DTC],2024-107L,2025-02-08T06:57:29.557152,15.69711401,.0001057,53.1581,35.3190,87.2356,272.8783,0,U,59955,999,4026,.55169E-5,.8E-6,0
STARLINK-11134 [DTC],2024-107M,2025-02-08T06:50:25.697760,15.69703111,.0001188,53.1586,35.2863,99.3992,260.7160,0,U,59956,999,4013,.11504E-4,.805E-5,0
STARLINK-11142 [DTC],2024-107N,2025-02-08T06:43:21.828864,15.69709174,.0001328,53.1584,35.2553,98.3299,261.7870,0,U,59957,999,4021,-.65059E-5,-.1377E-4,0
STARLINK-31995,2024-107P,2025-02-08T10:14:14.979264,15.30184018,.0001346,53.1601,96.7994,78.9575,281.1577,0,U,59958,999,3823,.65676E-4,.1585E-4,0
STARLINK-31989,2024-107Q,2025-02-08T10:05:08.170080,15.30168802,.0001449,53.1597,96.7632,92.9226,267.1940,0,U,59959,999,3943,.12928E-3,.3468E-4,0
STARLINK-31856,2024-107R,2025-02-08T10:09:41.378112,15.30181249,.0001376,53.1594,96.7798,81.6203,278.4954,0,U,59960,999,3943,.72693E-4,.1793E-4,0
STARLINK-31993,2024-107S,2025-02-08T10:23:22.088256,15.30185827,.0001238,53.1603,96.8356,74.9082,285.2056,0,U,59961,999,3937,.616E-4,.1465E-4,0
STARLINK-31980,2024-107T,2025-02-08T10:34:00.351840,15.30191120,.0001274,53.1607,96.8806,84.5385,275.5761,0,U,59962,999,3944,.47039E-4,.1034E-4,0
STARLINK-31991,2024-107U,2025-02-08T10:18:48.602016,15.30180455,.0001341,53.1600,96.8159,88.5991,271.5163,0,U,59963,999,3943,.93396E-4,.2406E-4,0
